[{"OBJECT_NAME":"YUNHAI-2 01C","OBJECT_ID":"2018-112C","EPOCH":"2026-03-09T23:40:43.339008","MEAN_MOTION":14.28951205,"ECCENTRICITY":5.385e-5,"INCLINATION":50.0116,"RA_OF_ASC_NODE":48.4892,"ARG_OF_PERICENTER":172.1642,"MEAN_ANOMALY":187.9282,"EPHEMERIS_TYPE":0,"CLASSIFICATION_TYPE":"U","NORAD_CAT_ID":43911,"ELEMENT_SET_NO":999,"REV_AT_EPOCH":37760,"BSTAR":8.3785899e-5,"MEAN_MOTION_DOT":5.2e-7,"MEAN_MOTION_DDOT":0},{"OBJECT_NAME":"CZ-6A DEB","OBJECT_ID":"2024-140KX","EPOCH":"2026-03-09T00:49:38.324640","MEAN_MOTION":14.1977767,"ECCENTRICITY":0.00546026,"INCLINATION":89.1225,"RA_OF_ASC_NODE":294.5368,"ARG_OF_PERICENTER":116.2094,"MEAN_ANOMALY":244.4724,"EPHEMERIS_TYPE":0,"CLASSIFICATION_TYPE":"U","NORAD_CAT_ID":60892,"ELEMENT_SET_NO":999,"REV_AT_EPOCH":8045,"BSTAR":0.00025410327,"MEAN_MOTION_DOT":5.6e-6,"MEAN_MOTION_DDOT":0}]
